OBJECT_NAME,OBJECT_ID,EPOCH,MEAN_MOTION,ECCENTRICITY,INCLINATION,RA_OF_ASC_NODE,ARG_OF_PERICENTER,MEAN_ANOMALY,EPHEMERIS_TYPE,CLASSIFICATION_TYPE,NORAD_CAT_ID,ELEMENT_SET_NO,REV_AT_EPOCH,BSTAR,MEAN_MOTION_DOT,MEAN_MOTION_DDOT
GOMX-1,2013-066Q,2026-05-12T20:14:18.667104,14.69316965,.0128401,97.6515,335.5349,190.3885,169.4665,0,U,39430,999,66472,.18195E-3,.1167E-4,0
CUBEBUG-2 (LO-74),2013-066AA,2026-05-12T19:47:41.383392,14.93491684,.0058845,97.8889,81.6671,143.2528,217.2748,0,U,39440,999,67171,.16626E-3,.1748E-4,0
NEE-02 KRYSAOR,2013-066AB,2026-05-12T19:16:39.230112,14.86483003,.0066046,97.8881,72.2784,184.4422,175.6216,0,U,39441,999,67094,.11153E-3,.967E-5,0
FUNCUBE-1 (AO-73),2013-066AE,2026-05-12T20:25:57.285408,15.09021963,.0035403,97.8258,103.5768,326.7913,33.1093,0,U,39444,999,67433,.3274E-3,.5186E-4,0
UWE-3,2013-066AG,2026-05-12T20:28:52.063104,14.96720144,.0050854,97.8679,88.7041,77.6887,283.0021,0,U,39446,999,67229,.18208E-3,.2072E-4,0
SMDC ONE 2.4,2013-072H,2026-05-12T19:53:58.441632,15.17505878,.0139894,120.4879,215.6556,340.7441,18.8382,0,U,39469,999,11246,.24929E-3,.6074E-4,0
COSMOS 2488 (RODNIK-S 7),2013-076A,2026-05-12T20:39:57.511584,12.42904328,.0019941,82.4862,190.7031,169.0777,191.0739,0,U,39483,999,56150,-.19897E-3,-.18E-6,0
COSMOS 2489 (RODNIK-S 8),2013-076B,2026-05-12T20:03:10.935072,12.42878900,.0021783,82.4899,192.0859,169.3356,190.8189,0,U,39484,999,56155,-.55585E-3,-.67E-6,0
COSMOS 2490 (RODNIK-S 9),2013-076C,2026-05-12T21:18:31.703616,12.42876869,.0021555,82.4846,190.1365,184.8087,175.2788,0,U,39485,999,56149,.68893E-3,.105E-5,0
KAZEOSAT 1,2014-024A,2026-05-12T20:14:38.480352,14.42064913,.000159,98.3210,206.1673,91.9118,268.2254,0,U,39731,999,63346,.82731E-5,-.15E-6,0
COSMOS 2496 (RODNIK-S 10),2014-028A,2026-05-12T20:17:26.987136,12.42877339,.0020416,82.4425,130.8685,152.6781,207.5376,0,U,39761,999,54312,.85441E-3,.128E-5,0
COSMOS 2497 (RODNIK-S 11),2014-028B,2026-05-12T19:42:29.833632,12.42893317,.0021097,82.4475,132.5599,147.9030,212.3339,0,U,39762,999,54312,.13022E-2,.19E-5,0
COSMOS 2498 (RODNIK-S 12),2014-028C,2026-05-12T19:13:46.356672,12.42979864,.0021813,82.4434,131.0748,147.7231,212.5188,0,U,39763,999,54315,.14343E-2,.209E-5,0
HODOYOSHI-4,2014-033B,2026-05-12T19:10:56.623872,14.88043144,.002506,97.5461,319.3327,64.5135,295.8670,0,U,40011,999,64354,.12928E-3,.1142E-4,0
UNISAT-6,2014-033C,2026-05-12T16:45:00.321696,14.88032447,.0045226,97.7835,286.0494,183.7363,176.3522,0,U,40012,999,64088,.24795E-3,.2264E-4,0
DEIMOS-2,2014-033D,2026-05-12T21:05:49.574400,14.93627562,.0002601,97.5880,8.6022,84.1430,276.0086,0,U,40013,999,63245,.16376E-3,.1675E-4,0
BUGSAT-1 (TITA),2014-033E,2026-05-12T20:11:43.952352,15.15213057,.0026932,98.0408,223.3369,303.0416,56.8228,0,U,40014,999,65048,.1696E-3,.3137E-4,0
SAUDISAT 4,2014-033G,2026-05-12T16:19:22.052640,14.79490447,.004469,97.7536,280.0536,187.1060,172.9524,0,U,40016,999,64082,.68374E-4,.467E-5,0
APRIZESAT 9,2014-033J,2026-05-12T15:23:08.918016,14.74171498,.0065145,97.9007,266.7186,315.4618,44.1365,0,U,40018,999,63832,.48213E-4,.275E-5,0
BRITE-CA1 (TORONTO),2014-033L,2026-05-12T20:12:38.202048,14.72627377,.0079296,97.9688,262.4329,31.0122,329.5732,0,U,40020,999,63701,.74164E-4,.442E-5,0
DUCHIFAT-1,2014-033M,2026-05-12T03:00:31.313088,15.58226206,.00058006,98.0509,186.4226,189.1310,170.9839,0,U,40021,999,65012,.67126926E-3,.5087E-3,0
NANOSATC-BR1,2014-033Q,2026-05-12T07:40:50.300832,15.30300900,.0001986,98.0757,161.5605,330.4034,29.7092,0,U,40024,999,64849,.32574E-3,.9463E-4,0
