GOMX-1                  
1 39430U 13066Q   26132.84327161  .00001167  00000+0  18195-3 0  9992
2 39430  97.6515 335.5349 0128401 190.3885 169.4665 14.69316965664728
CUBEBUG-2 (LO-74)       
1 39440U 13066AA  26132.82478453  .00001748  00000+0  16626-3 0  9994
2 39440  97.8889  81.6671 0058845 143.2528 217.2748 14.93491684671717
NEE-02 KRYSAOR          
1 39441U 13066AB  26132.80323183  .00000967  00000+0  11153-3 0  9994
2 39441  97.8881  72.2784 0066046 184.4422 175.6216 14.86483003670942
FUNCUBE-1 (AO-73)       
1 39444U 13066AE  26132.85135747  .00005186  00000+0  32740-3 0  9992
2 39444  97.8258 103.5768 0035403 326.7913  33.1093 15.09021963674339
UWE-3                   
1 39446U 13066AG  26132.85338036  .00002072  00000+0  18208-3 0  9994
2 39446  97.8679  88.7041 0050854  77.6887 283.0021 14.96720144672297
SMDC ONE 2.4            
1 39469U 13072H   26132.82914863  .00006074  00000+0  24929-3 0  9994
2 39469 120.4879 215.6556 0139894 340.7441  18.8382 15.17505878112462
COSMOS 2488 (RODNIK-S 7)
1 39483U 13076A   26132.86108231 -.00000018  00000+0 -19897-3 0  9994
2 39483  82.4862 190.7031 0019941 169.0777 191.0739 12.42904328561503
COSMOS 2489 (RODNIK-S 8)
1 39484U 13076B   26132.83554323 -.00000067  00000+0 -55585-3 0  9997
2 39484  82.4899 192.0859 0021783 169.3356 190.8189 12.42878900561557
COSMOS 2490 (RODNIK-S 9)
1 39485U 13076C   26132.88786694  .00000105  00000+0  68893-3 0  9998
2 39485  82.4846 190.1365 0021555 184.8087 175.2788 12.42876869561498
KAZEOSAT 1              
1 39731U 14024A   26132.84350093 -.00000015  00000+0  82731-5 0  9992
2 39731  98.3210 206.1673 0001590  91.9118 268.2254 14.42064913633462
COSMOS 2496 (RODNIK-S *)
1 39761U 14028A   26132.84545124  .00000128  00000+0  85441-3 0  9993
2 39761  82.4425 130.8685 0020416 152.6781 207.5376 12.42877339543128
COSMOS 2497 (RODNIK-S *)
1 39762U 14028B   26132.82117863  .00000190  00000+0  13022-2 0  9991
2 39762  82.4475 132.5599 0021097 147.9030 212.3339 12.42893317543124
COSMOS 2498 (RODNIK-S *)
1 39763U 14028C   26132.80123098  .00000209  00000+0  14343-2 0  9995
2 39763  82.4434 131.0748 0021813 147.7231 212.5188 12.42979864543156
HODOYOSHI-4             
1 40011U 14033B   26132.79926648  .00001142  00000+0  12928-3 0  9994
2 40011  97.5461 319.3327 0025060  64.5135 295.8670 14.88043144643541
UNISAT-6                
1 40012U 14033C   26132.69792039  .00002264  00000+0  24795-3 0  9990
2 40012  97.7835 286.0494 0045226 183.7363 176.3522 14.88032447640884
DEIMOS-2                
1 40013U 14033D   26132.87904600  .00001675  00000+0  16376-3 0  9991
2 40013  97.5880   8.6022 0002601  84.1430 276.0086 14.93627562632458
BUGSAT-1 (TITA)         
1 40014U 14033E   26132.84148093  .00003137  00000+0  16960-3 0  9999
2 40014  98.0408 223.3369 0026932 303.0416  56.8228 15.15213057650481
SAUDISAT 4              
1 40016U 14033G   26132.68011635  .00000467  00000+0  68374-4 0  9994
2 40016  97.7536 280.0536 0044690 187.1060 172.9524 14.79490447640829
APRIZESAT 9             
1 40018U 14033J   26132.64107544  .00000275  00000+0  48213-4 0  9994
2 40018  97.9007 266.7186 0065145 315.4618  44.1365 14.74171498638323
BRITE-CA1 (TORONTO)     
1 40020U 14033L   26132.84210882  .00000442  00000+0  74164-4 0  9999
2 40020  97.9688 262.4329 0079296  31.0122 329.5732 14.72627377637019
DUCHIFAT-1              
1 40021U 14033M   26132.12536242  .00050870  00000+0  67127-3 0  9992
2 40021  98.0509 186.4226 0005800 189.1310 170.9839 15.58226206650123
NANOSATC-BR1            
1 40024U 14033Q   26132.32002663  .00009463  00000+0  32574-3 0  9992
2 40024  98.0757 161.5605 0001986 330.4034  29.7092 15.30300900648494
